{
  "type": "FeatureCollection",
  "features": [
    {
      "type": "Feature",
      "properties": {
        "norad_id": 41018,
        "name": "FENGYUN 1C DEB",
        "group": "fengyun-1c-debris",
        "lat": -61.61622534916807,
        "lon": 87.89223057436048,
        "alt_km": 1153.644280379025,
        "timestamp": "2025-12-08T10:52:03.237925+00:00",
        "meta_object_name": "FENGYUN 1C DEB",
        "meta_object_id": "1999-025EXY",
        "meta_epoch": "2025-11-14T13:55:42.109536",
        "meta_mean_motion": 13.52269451,
        "meta_eccentricity": 0.03030631,
        "meta_inclination": 99.9325,
        "meta_ra_of_asc_node": 262.8906,
        "meta_arg_of_pericenter": 189.0805,
        "meta_mean_anomaly": 170.4772,
        "meta_ephemeris_type": 0,
        "meta_classification_type": "U",
        "meta_norad_cat_id": 41018,
        "meta_element_set_no": 999,
        "meta_rev_at_epoch": 87794,
        "meta_bstar": 0.0023936359,
        "meta_mean_motion_dot": 2.062e-05,
        "meta_mean_motion_ddot": 0,
        "tle_line1": "1 41018U 99025EXY 25318.58034849  .00002062  00000+0  23936-2 0  9993",
        "tle_line2": "2 41018  99.9325 262.8906 0303063 189.0805 170.4772 13.52269451877943"
      },
      "geometry": {
        "type": "Point",
        "coordinates": [
          87.89223057436048,
          -61.61622534916807
        ]
      }
    },
    {
      "type": "Feature",
      "properties": {
        "norad_id": 41822,
        "name": "FENGYUN 1C DEB",
        "group": "fengyun-1c-debris",
        "lat": -62.21804634537384,
        "lon": -148.27574804858045,
        "alt_km": 777.5274914925039,
        "timestamp": "2025-12-08T10:52:03.237935+00:00",
        "meta_object_name": "FENGYUN 1C DEB",
        "meta_object_id": "1999-025EXZ",
        "meta_epoch": "2025-12-07T15:11:10.613472",
        "meta_mean_motion": 14.24742013,
        "meta_eccentricity": 0.0055132,
        "meta_inclination": 98.7319,
        "meta_ra_of_asc_node": 47.8699,
        "meta_arg_of_pericenter": 235.1055,
        "meta_mean_anomaly": 124.4935,
        "meta_ephemeris_type": 0,
        "meta_classification_type": "U",
        "meta_norad_cat_id": 41822,
        "meta_element_set_no": 999,
        "meta_rev_at_epoch": 47300,
        "meta_bstar": 0.0027484283,
        "meta_mean_motion_dot": 6.463e-05,
        "meta_mean_motion_ddot": 0,
        "tle_line1": "1 41822U 99025EXZ 25341.63276173  .00006463  00000+0  27484-2 0  9997",
        "tle_line2": "2 41822  98.7319  47.8699 0055132 235.1055 124.4935 14.24742013473006"
      },
      "geometry": {
        "type": "Point",
        "coordinates": [
          -148.27574804858045,
          -62.21804634537384
        ]
      }
    },
    {
      "type": "Feature",
      "properties": {
        "norad_id": 41823,
        "name": "FENGYUN 1C DEB",
        "group": "fengyun-1c-debris",
        "lat": -25.06945429401811,
        "lon": 49.93312802017988,
        "alt_km": 821.7616431140932,
        "timestamp": "2025-12-08T10:52:03.237946+00:00",
        "meta_object_name": "FENGYUN 1C DEB",
        "meta_object_id": "1999-025EYA",
        "meta_epoch": "2025-12-07T14:44:35.543328",
        "meta_mean_motion": 14.23467903,
        "meta_eccentricity": 0.00544323,
        "meta_inclination": 98.7204,
        "meta_ra_of_asc_node": 44.985,
        "meta_arg_of_pericenter": 243.0257,
        "meta_mean_anomaly": 116.5357,
        "meta_ephemeris_type": 0,
        "meta_classification_type": "U",
        "meta_norad_cat_id": 41823,
        "meta_element_set_no": 999,
        "meta_rev_at_epoch": 47285,
        "meta_bstar": 0.0025968853,
        "meta_mean_motion_dot": 5.952e-05,
        "meta_mean_motion_ddot": 0,
        "tle_line1": "1 41823U 99025EYA 25341.61430027  .00005952  00000+0  25969-2 0  9994",
        "tle_line2": "2 41823  98.7204  44.9850 0054432 243.0257 116.5357 14.23467903472854"
      },
      "geometry": {
        "type": "Point",
        "coordinates": [
          49.93312802017988,
          -25.06945429401811
        ]
      }
    },
    {
      "type": "Feature",
      "properties": {
        "norad_id": 41824,
        "name": "FENGYUN 1C DEB",
        "group": "fengyun-1c-debris",
        "lat": -8.780049781683855,
        "lon": -134.85391357059547,
        "alt_km": 789.4120739457649,
        "timestamp": "2025-12-08T10:52:03.237955+00:00",
        "meta_object_name": "FENGYUN 1C DEB",
        "meta_object_id": "1999-025EYB",
        "meta_epoch": "2025-12-07T15:25:49.980576",
        "meta_mean_motion": 14.24108367,
        "meta_eccentricity": 0.00570247,
        "meta_inclination": 98.731,
        "meta_ra_of_asc_node": 45.7018,
        "meta_arg_of_pericenter": 241.9455,
        "meta_mean_anomaly": 117.595,
        "meta_ephemeris_type": 0,
        "meta_classification_type": "U",
        "meta_norad_cat_id": 41824,
        "meta_element_set_no": 999,
        "meta_rev_at_epoch": 47287,
        "meta_bstar": 0.0026917347,
        "meta_mean_motion_dot": 6.258e-05,
        "meta_mean_motion_ddot": 0,
        "tle_line1": "1 41824U 99025EYB 25341.64293959  .00006258  00000+0  26917-2 0  9993",
        "tle_line2": "2 41824  98.7310  45.7018 0057024 241.9455 117.5950 14.24108367472874"
      },
      "geometry": {
        "type": "Point",
        "coordinates": [
          -134.85391357059547,
          -8.780049781683855
        ]
      }
    },
    {
      "type": "Feature",
      "properties": {
        "norad_id": 41825,
        "name": "FENGYUN 1C DEB",
        "group": "fengyun-1c-debris",
        "lat": 37.71856006537577,
        "lon": 44.663064476560564,
        "alt_km": 843.7790433109831,
        "timestamp": "2025-12-08T10:52:03.237965+00:00",
        "meta_object_name": "FENGYUN 1C DEB",
        "meta_object_id": "1999-025EYC",
        "meta_epoch": "2025-12-04T15:41:20.617440",
        "meta_mean_motion": 14.24990364,
        "meta_eccentricity": 0.00548668,
        "meta_inclination": 98.7445,
        "meta_ra_of_asc_node": 47.7152,
        "meta_arg_of_pericenter": 243.3482,
        "meta_mean_anomaly": 116.2072,
        "meta_ephemeris_type": 0,
        "meta_classification_type": "U",
        "meta_norad_cat_id": 41825,
        "meta_element_set_no": 999,
        "meta_rev_at_epoch": 47233,
        "meta_bstar": 0.0029898177,
        "meta_mean_motion_dot": 7.069e-05,
        "meta_mean_motion_ddot": 0,
        "tle_line1": "1 41825U 99025EYC 25338.65371085  .00007069  00000+0  29898-2 0  9990",
        "tle_line2": "2 41825  98.7445  47.7152 0054866 243.3482 116.2072 14.24990364472330"
      },
      "geometry": {
        "type": "Point",
        "coordinates": [
          44.663064476560564,
          37.71856006537577
        ]
      }
    },
    {
      "type": "Feature",
      "properties": {
        "norad_id": 41826,
        "name": "FENGYUN 1C DEB",
        "group": "fengyun-1c-debris",
        "lat": 30.52908093393234,
        "lon": 43.07543176074959,
        "alt_km": 847.1369417010646,
        "timestamp": "2025-12-08T10:52:03.237976+00:00",
        "meta_object_name": "FENGYUN 1C DEB",
        "meta_object_id": "1999-025EYD",
        "meta_epoch": "2025-12-04T15:38:19.862592",
        "meta_mean_motion": 14.23663434,
        "meta_eccentricity": 0.0055166,
        "meta_inclination": 98.7346,
        "meta_ra_of_asc_node": 44.5031,
        "meta_arg_of_pericenter": 246.686,
        "meta_mean_anomaly": 112.8507,
        "meta_ephemeris_type": 0,
        "meta_classification_type": "U",
        "meta_norad_cat_id": 41826,
        "meta_element_set_no": 999,
        "meta_rev_at_epoch": 47245,
        "meta_bstar": 0.0031602,
        "meta_mean_motion_dot": 7.285e-05,
        "meta_mean_motion_ddot": 0,
        "tle_line1": "1 41826U 99025EYD 25338.65161878  .00007285  00000+0  31602-2 0  9994",
        "tle_line2": "2 41826  98.7346  44.5031 0055166 246.6860 112.8507 14.23663434472454"
      },
      "geometry": {
        "type": "Point",
        "coordinates": [
          43.07543176074959,
          30.52908093393234
        ]
      }
    },
    {
      "type": "Feature",
      "properties": {
        "norad_id": 41827,
        "name": "FENGYUN 1C DEB",
        "group": "fengyun-1c-debris",
        "lat": -78.73276595330226,
        "lon": -178.8987909986989,
        "alt_km": 781.6954737366814,
        "timestamp": "2025-12-08T10:52:03.237986+00:00",
        "meta_object_name": "FENGYUN 1C DEB",
        "meta_object_id": "1999-025EYE",
        "meta_epoch": "2025-12-07T16:47:18.211776",
        "meta_mean_motion": 14.25214551,
        "meta_eccentricity": 0.00580232,
        "meta_inclination": 98.743,
        "meta_ra_of_asc_node": 50.9236,
        "meta_arg_of_pericenter": 227.9682,
        "meta_mean_anomaly": 131.6551,
        "meta_ephemeris_type": 0,
        "meta_classification_type": "U",
        "meta_norad_cat_id": 41827,
        "meta_element_set_no": 999,
        "meta_rev_at_epoch": 47259,
        "meta_bstar": 0.0029101077,
        "meta_mean_motion_dot": 6.922e-05,
        "meta_mean_motion_ddot": 0,
        "tle_line1": "1 41827U 99025EYE 25341.69951634  .00006922  00000+0  29101-2 0  9998",
        "tle_line2": "2 41827  98.7430  50.9236 0058023 227.9682 131.6551 14.25214551472593"
      },
      "geometry": {
        "type": "Point",
        "coordinates": [
          -178.8987909986989,
          -78.73276595330226
        ]
      }
    }
  ]
}